start=new Date('2022-01-31T00:00:00.000Z').valueOf();
sats=[{"LAUNCH_DATE":"2022-01-06","MEAN_MOTION_DDOT":"0.0000000000000","CLASSIFICATION_TYPE":"U","OBJECT_TYPE":"PAYLOAD","CENTER_NAME":"EARTH","REF_FRAME":"TEME","MEAN_MOTION":"15.73201652","PERIAPSIS":"348.518","TLE_LINE1":"1 50833U 22001AG  22030.86506199  .00004303  00000-0  35061-4 0  9994","PERIOD":"91.533","FILE":"3287903","OBJECT_NAME":"STARLINK-3316","RCS_SIZE":"LARGE","MEAN_ANOMALY":"331.1363","OBJECT_ID":"2022-001AG","ARG_OF_PERICENTER":"28.9759","APOAPSIS":"350.993","EPHEMERIS_TYPE":"0","TIME_SYSTEM":"UTC","DECAY_DATE":null,"INCLINATION":"53.2149","RA_OF_ASC_NODE":"80.4194","MEAN_MOTION_DOT":"0.00004303","SITE":"AFETR","GP_ID":"194986115","COUNTRY_CODE":"US","REV_AT_EPOCH":"381","TLE_LINE2":"2 50833  53.2149  80.4194 0001840  28.9759 331.1363 15.73201652  3818","EPOCH":"2022-01-30T20:45:41.355936","ELEMENT_SET_NO":"999","BSTAR":"0.00003506100000","ECCENTRICITY":"0.00018400","MEAN_ELEMENT_THEORY":"SGP4","SEMIMAJOR_AXIS":"6727.890","NORAD_CAT_ID":"50833"},{"GP_ID":"194986590","SITE":"AFETR","MEAN_MOTION_DOT":"0.00018731","RA_OF_ASC_NODE":"80.4100","INCLINATION":"53.2144","DECAY_DATE":null,"EPHEMERIS_TYPE":"0","APOAPSIS":"351.042","ARG_OF_PERICENTER":"22.0274","TIME_SYSTEM":"UTC","BSTAR":"0.00013735000000","ECCENTRICITY":"0.00020710","ELEMENT_SET_NO":"999","MEAN_ELEMENT_THEORY":"SGP4","SEMIMAJOR_AXIS":"6727.784","NORAD_CAT_ID":"50834","EPOCH":"2022-01-30T20:44:22.282656","COUNTRY_CODE":"US","REV_AT_EPOCH":"381","TLE_LINE2":"2 50834  53.2144  80.4100 0002071  22.0274 338.0835 15.73239107  3811","CLASSIFICATION_TYPE":"U","MEAN_MOTION_DDOT":"0.0000000000000","LAUNCH_DATE":"2022-01-06","RCS_SIZE":"LARGE","OBJECT_ID":"2022-001AH","MEAN_ANOMALY":"338.0835","FILE":"3287903","OBJECT_NAME":"STARLINK-3331","TLE_LINE1":"1 50834U 22001AH  22030.86414679  .00018731  00000-0  13735-3 0  9999","PERIOD":"91.531","PERIAPSIS":"348.255","MEAN_MOTION":"15.73239107","REF_FRAME":"TEME","OBJECT_TYPE":"PAYLOAD","CENTER_NAME":"EARTH"},{"LAUNCH_DATE":"2022-01-06","CLASSIFICATION_TYPE":"U","MEAN_MOTION_DDOT":"0.0000000000000","PERIAPSIS":"348.347","MEAN_MOTION":"15.73210657","CENTER_NAME":"EARTH","OBJECT_TYPE":"PAYLOAD","REF_FRAME":"TEME","MEAN_ANOMALY":"331.6703","OBJECT_ID":"2022-001AJ","RCS_SIZE":"LARGE","PERIOD":"91.533","TLE_LINE1":"1 50835U 22001AJ  22030.86392819 -.00007940  00000-0 -52173-4 0  9993","OBJECT_NAME":"STARLINK-3310","FILE":"3287903","INCLINATION":"53.2150","RA_OF_ASC_NODE":"80.4107","TIME_SYSTEM":"UTC","EPHEMERIS_TYPE":"0","APOAPSIS":"351.112","ARG_OF_PERICENTER":"28.4429","DECAY_DATE":null,"SITE":"AFETR","GP_ID":"194986348","MEAN_MOTION_DOT":"-0.00007940","REV_AT_EPOCH":"381","TLE_LINE2":"2 50835  53.2150  80.4107 0002055  28.4429 331.6703 15.73210657  3812","COUNTRY_CODE":"US","SEMIMAJOR_AXIS":"6727.865","NORAD_CAT_ID":"50835","MEAN_ELEMENT_THEORY":"SGP4","BSTAR":"-0.00005217300000","ELEMENT_SET_NO":"999","ECCENTRICITY":"0.00020550","EPOCH":"2022-01-30T20:44:03.395616"},{"MEAN_MOTION_DDOT":"0.0000000000000","CLASSIFICATION_TYPE":"U","LAUNCH_DATE":"2022-01-06","OBJECT_NAME":"STARLINK-3330","FILE":"3287903","PERIOD":"91.532","TLE_LINE1":"1 50836U 22001AK  22030.86427413  .00017482  00000-0  12862-3 0  9993","MEAN_ANOMALY":"327.1561","OBJECT_ID":"2022-001AK","RCS_SIZE":"LARGE","REF_FRAME":"TEME","CENTER_NAME":"EARTH","OBJECT_TYPE":"PAYLOAD","PERIAPSIS":"348.206","MEAN_MOTION":"15.73217012","MEAN_MOTION_DOT":"0.00017482","GP_ID":"194986196","SITE":"AFETR","DECAY_DATE":null,"TIME_SYSTEM":"UTC","EPHEMERIS_TYPE":"0","APOAPSIS":"351.217","ARG_OF_PERICENTER":"32.9598","INCLINATION":"53.2140","RA_OF_ASC_NODE":"80.4121","EPOCH":"2022-01-30T20:44:33.284832","SEMIMAJOR_AXIS":"6727.847","NORAD_CAT_ID":"50836","MEAN_ELEMENT_THEORY":"SGP4","ECCENTRICITY":"0.00022380","BSTAR":"0.00012862000000","ELEMENT_SET_NO":"999","REV_AT_EPOCH":"381","TLE_LINE2":"2 50836  53.2140  80.4121 0002238  32.9598 327.1561 15.73217012  3812","COUNTRY_CODE":"US"},{"CLASSIFICATION_TYPE":"U","MEAN_MOTION_DDOT":"0.0000000000000","LAUNCH_DATE":"2022-01-06","RCS_SIZE":"LARGE","OBJECT_ID":"2022-001AL","MEAN_ANOMALY":"322.2796","PERIOD":"91.532","TLE_LINE1":"1 50837U 22001AL  22030.86516509  .00018481  00000-0  13567-3 0  9992","FILE":"3287903","OBJECT_NAME":"STARLINK-3318","MEAN_MOTION":"15.73223854","PERIAPSIS":"348.633","OBJECT_TYPE":"PAYLOAD","CENTER_NAME":"EARTH","REF_FRAME":"TEME","SITE":"AFETR","GP_ID":"194986429","MEAN_MOTION_DOT":"0.00018481","INCLINATION":"53.2158","RA_OF_ASC_NODE":"80.4178","APOAPSIS":"350.752","EPHEMERIS_TYPE":"0","ARG_OF_PERICENTER":"37.8335","TIME_SYSTEM":"UTC","DECAY_DATE":null,"ELEMENT_SET_NO":"999","BSTAR":"0.00013567000000","ECCENTRICITY":"0.00015750","NORAD_CAT_ID":"50837","SEMIMAJOR_AXIS":"6727.827","MEAN_ELEMENT_THEORY":"SGP4","EPOCH":"2022-01-30T20:45:50.263776","COUNTRY_CODE":"US","TLE_LINE2":"2 50837  53.2158  80.4178 0001575  37.8335 322.2796 15.73223854  3817","REV_AT_EPOCH":"381"},{"EPOCH":"2022-01-30T20:43:05.018592","NORAD_CAT_ID":"50838","SEMIMAJOR_AXIS":"6727.872","MEAN_ELEMENT_THEORY":"SGP4","ELEMENT_SET_NO":"999","BSTAR":"-0.00003108500000","ECCENTRICITY":"0.00014000","REV_AT_EPOCH":"381","TLE_LINE2":"2 50838  53.2154  80.4041 0001400  22.9043 337.2040 15.73208093  3817","COUNTRY_CODE":"US","MEAN_MOTION_DOT":"-0.00004982","SITE":"AFETR","GP_ID":"194986277","TIME_SYSTEM":"UTC","APOAPSIS":"350.679","EPHEMERIS_TYPE":"0","ARG_OF_PERICENTER":"22.9043","DECAY_DATE":null,"RA_OF_ASC_NODE":"80.4041","INCLINATION":"53.2154","PERIOD":"91.533","TLE_LINE1":"1 50838U 22001AM  22030.86325253 -.00004982  00000-0 -31085-4 0  9996","OBJECT_NAME":"STARLINK-3322","FILE":"3287903","OBJECT_ID":"2022-001AM","MEAN_ANOMALY":"337.2040","RCS_SIZE":"LARGE","CENTER_NAME":"EARTH","OBJECT_TYPE":"PAYLOAD","REF_FRAME":"TEME","MEAN_MOTION":"15.73208093","PERIAPSIS":"348.795","MEAN_MOTION_DDOT":"0.0000000000000","CLASSIFICATION_TYPE":"U","LAUNCH_DATE":"2022-01-06"},{"CLASSIFICATION_TYPE":"U","MEAN_MOTION_DDOT":"0.0000000000000","LAUNCH_DATE":"2022-01-06","MEAN_ANOMALY":"342.3658","OBJECT_ID":"2022-001AN","RCS_SIZE":"LARGE","OBJECT_NAME":"STARLINK-3320","FILE":"3287903","TLE_LINE1":"1 50839U 22001AN  22030.86358723 -.00000740  00000-0 -84957-6 0  9991","PERIOD":"91.532","MEAN_MOTION":"15.73218116","PERIAPSIS":"348.593","REF_FRAME":"TEME","CENTER_NAME":"EARTH","OBJECT_TYPE":"PAYLOAD","GP_ID":"194986035","SITE":"AFETR","MEAN_MOTION_DOT":"-0.00000740","RA_OF_ASC_NODE":"80.4076","INCLINATION":"53.2164","DECAY_DATE":null,"TIME_SYSTEM":"UTC","EPHEMERIS_TYPE":"0","APOAPSIS":"350.824","ARG_OF_PERICENTER":"17.7420","SEMIMAJOR_AXIS":"6727.844","MEAN_ELEMENT_THEORY":"SGP4","NORAD_CAT_ID":"50839","ECCENTRICITY":"0.00016580","BSTAR":"-0.00000084957000","ELEMENT_SET_NO":"999","EPOCH":"2022-01-30T20:43:33.936672","TLE_LINE2":"2 50839  53.2164  80.4076 0001658  17.7420 342.3658 15.73218116  3801","REV_AT_EPOCH":"380","COUNTRY_CODE":"US"},{"MEAN_MOTION_DDOT":"0.0000000000000","CLASSIFICATION_TYPE":"U","LAUNCH_DATE":"2022-01-06","PERIOD":"91.531","TLE_LINE1":"1 50840U 22001AP  22030.86347899  .00008277  00000-0  63255-4 0  9992","FILE":"3287903","OBJECT_NAME":"STARLINK-3295","RCS_SIZE":"LARGE","OBJECT_ID":"2022-001AP","MEAN_ANOMALY":"317.7993","OBJECT_TYPE":"PAYLOAD","CENTER_NAME":"EARTH","REF_FRAME":"TEME","MEAN_MOTION":"15.73230326","PERIAPSIS":"348.474","MEAN_MOTION_DOT":"0.00008277","SITE":"AFETR","GP_ID":"194986510","ARG_OF_PERICENTER":"42.3164","APOAPSIS":"350.873","EPHEMERIS_TYPE":"0","TIME_SYSTEM":"UTC","DECAY_DATE":null,"INCLINATION":"53.2140","RA_OF_ASC_NODE":"80.4059","EPOCH":"2022-01-30T20:43:24.584736","ELEMENT_SET_NO":"999","BSTAR":"0.00006325500000","ECCENTRICITY":"0.00017830","SEMIMAJOR_AXIS":"6727.809","NORAD_CAT_ID":"50840","MEAN_ELEMENT_THEORY":"SGP4","COUNTRY_CODE":"US","TLE_LINE2":"2 50840  53.2140  80.4059 0001783  42.3164 317.7993 15.73230326  3801","REV_AT_EPOCH":"380"},{"EPOCH":"2022-01-30T20:43:54.431616","SEMIMAJOR_AXIS":"6727.843","NORAD_CAT_ID":"50841","MEAN_ELEMENT_THEORY":"SGP4","ELEMENT_SET_NO":"999","BSTAR":"0.00011464000000","ECCENTRICITY":"0.00019010","TLE_LINE2":"2 50841  53.2137  80.4081 0001901  28.1854 331.9269 15.73218373  3816","REV_AT_EPOCH":"381","COUNTRY_CODE":"US","MEAN_MOTION_DOT":"0.00015511","GP_ID":"194986116","SITE":"AFETR","DECAY_DATE":null,"TIME_SYSTEM":"UTC","APOAPSIS":"350.987","ARG_OF_PERICENTER":"28.1854","EPHEMERIS_TYPE":"0","INCLINATION":"53.2137","RA_OF_ASC_NODE":"80.4081","OBJECT_NAME":"STARLINK-3300","FILE":"3287903","PERIOD":"91.532","TLE_LINE1":"1 50841U 22001AQ  22030.86382444  .00015511  00000-0  11464-3 0  9991","OBJECT_ID":"2022-001AQ","MEAN_ANOMALY":"331.9269","RCS_SIZE":"LARGE","REF_FRAME":"TEME","CENTER_NAME":"EARTH","OBJECT_TYPE":"PAYLOAD","MEAN_MOTION":"15.73218373","PERIAPSIS":"348.429","MEAN_MOTION_DDOT":"0.0000000000000","CLASSIFICATION_TYPE":"U","LAUNCH_DATE":"2022-01-06"},{"SEMIMAJOR_AXIS":"6727.837","NORAD_CAT_ID":"50842","MEAN_ELEMENT_THEORY":"SGP4","BSTAR":"0.00010705000000","ECCENTRICITY":"0.00018600","ELEMENT_SET_NO":"999","EPOCH":"2022-01-30T20:43:15.217248","REV_AT_EPOCH":"380","TLE_LINE2":"2 50842  53.2146  80.4038 0001860  31.7243 328.3889 15.73220289  3801","COUNTRY_CODE":"US","GP_ID":"194986591","SITE":"AFETR","MEAN_MOTION_DOT":"0.00014442","RA_OF_ASC_NODE":"80.4038","INCLINATION":"53.2146","DECAY_DATE":null,"TIME_SYSTEM":"UTC","ARG_OF_PERICENTER":"31.7243","APOAPSIS":"350.954","EPHEMERIS_TYPE":"0","MEAN_ANOMALY":"328.3889","OBJECT_ID":"2022-001AR","RCS_SIZE":"LARGE","OBJECT_NAME":"STARLINK-3302","FILE":"3287903","PERIOD":"91.532","TLE_LINE1":"1 50842U 22001AR  22030.86337057  .00014442  00000-0  10705-3 0  9991","PERIAPSIS":"348.451","MEAN_MOTION":"15.73220289","REF_FRAME":"TEME","CENTER_NAME":"EARTH","OBJECT_TYPE":"PAYLOAD","CLASSIFICATION_TYPE":"U","MEAN_MOTION_DDOT":"0.0000000000000","LAUNCH_DATE":"2022-01-06"}];
